[{"OBJECT_NAME":"FLOCK 4G-21","OBJECT_ID":"2025-009AU","EPOCH":"2026-03-09T04:40:37.351200","MEAN_MOTION":15.28381075,"ECCENTRICITY":4.655e-5,"INCLINATION":97.4032,"RA_OF_ASC_NODE":151.1274,"ARG_OF_PERICENTER":329.5782,"MEAN_ANOMALY":30.5431,"EPHEMERIS_TYPE":0,"CLASSIFICATION_TYPE":"U","NORAD_CAT_ID":62651,"ELEMENT_SET_NO":999,"REV_AT_EPOCH":6367,"BSTAR":0.00049618643,"MEAN_MOTION_DOT":0.00013648,"MEAN_MOTION_DDOT":0},{"OBJECT_NAME":"STARLINK-36415","OBJECT_ID":"2026-012AC","EPOCH":"2026-03-09T02:05:18.273120","MEAN_MOTION":15.27547014,"ECCENTRICITY":0.00021174,"INCLINATION":43.0042,"RA_OF_ASC_NODE":317.4482,"ARG_OF_PERICENTER":279.6103,"MEAN_ANOMALY":80.451,"EPHEMERIS_TYPE":0,"CLASSIFICATION_TYPE":"U","NORAD_CAT_ID":67519,"ELEMENT_SET_NO":999,"REV_AT_EPOCH":767,"BSTAR":0.001305131,"MEAN_MOTION_DOT":0.00035791,"MEAN_MOTION_DDOT":0}]
