FLOCK 4G-21             
1 62651U 25009AU  26068.19487675  .00013648  00000+0  49619-3 0  9998
2 62651  97.4032 151.1274 0000465 329.5782  30.5431 15.28381075 63677
STARLINK-36415          
1 67519U 26012AC  26068.08701705  .00035791  00000+0  13051-2 0  9995
2 67519  43.0042 317.4482 0002117 279.6103  80.4510 15.27547014  7675
